[

  {
    "institutionId":"0156",
    "guardianHeiTitle":"Oxford",
    "ukPrn":"10007774",
    "providerName":"UNIVERSITY OF OXFORD",
    "postcode":"OX1 2JD",
    "missionGroup":"Russell_Group",
    "longitude":-1.262868,
    "latitude":51.757644,
    "easting":450974,
    "northing":206807
  },
  {
    "institutionId":"0017",
    "guardianHeiTitle":"Falmouth",
    "ukPrn":"10008640",
    "providerName":"UNIVERSITY COLLEGE FALMOUTH",
    "postcode":"TR11 4RH",
    "missionGroup":"",
    "longitude":-5.070901,
    "latitude":50.149168,
    "easting":180711,
    "northing":32196
  },
  {
    "institutionId":"0123",
    "guardianHeiTitle":"Lancaster",
    "ukPrn":"10007768",
    "providerName":"UNIVERSITY OF LANCASTER",
    "postcode":"LA1 4YW",
    "missionGroup":"N8_Research_Partnership",
    "longitude":-2.786905,
    "latitude":54.01048,
    "easting":348528,
    "northing":457448
  },
  {
    "institutionId":"0048",
    "guardianHeiTitle":"Bath Spa",
    "ukPrn":"10000571",
    "providerName":"BATH SPA UNIVERSITY",
    "postcode":"BA2 9BN",
    "missionGroup":"Million_Plus",
    "longitude":-2.4374,
    "latitude":51.378739,
    "easting":369654,
    "northing":164501
  },
  {
    "institutionId":"0179",
    "guardianHeiTitle":"Cardiff",
    "ukPrn":"10007814",
    "providerName":"CARDIFF UNIVERSITY",
    "postcode":"CF10 3AT",
    "missionGroup":"Russell_Group",
    "longitude":-3.179907,
    "latitude":51.489093,
    "easting":318176,
    "northing":177343
  },
  {
    "institutionId":"0160",
    "guardianHeiTitle":"Southampton",
    "ukPrn":"10007158",
    "providerName":"UNIVERSITY OF SOUTHAMPTON",
    "postcode":"SO17 1BJ",
    "missionGroup":"Russell_Group",
    "longitude":-1.395675,
    "latitude":50.93418,
    "easting":442562,
    "northing":115145
  },
  {
    "institutionId":"0143",
    "guardianHeiTitle":"Royal Veterinary College",
    "ukPrn":"10007779",
    "providerName":"THE ROYAL VETERINARY COLLEGE",
    "postcode":"NW1 0TU",
    "missionGroup":"",
    "longitude":-0.133498,
    "latitude":51.536862,
    "easting":529548,
    "northing":183646
  },
  {
    "institutionId":"0057",
    "guardianHeiTitle":"Derby",
    "ukPrn":"10007851",
    "providerName":"UNIVERSITY OF DERBY",
    "postcode":"DE22 1GB",
    "missionGroup":"Million_Plus",
    "longitude":-1.496677,
    "latitude":52.938545,
    "easting":433924,
    "northing":338022
  },
  {
    "institutionId":"0050",
    "guardianHeiTitle":"Bournemouth",
    "ukPrn":"10000824",
    "providerName":"BOURNEMOUTH UNIVERSITY",
    "postcode":"BH12 5BB",
    "missionGroup":"University_Alliance",
    "longitude":-1.897159,
    "latitude":50.742968,
    "easting":407352,
    "northing":93713
  },
  {
    "institutionId":"0024",
    "guardianHeiTitle":"University of the Arts London",
    "ukPrn":"10007162",
    "providerName":"UNIVERSITY OF THE ARTS, LONDON",
    "postcode":"WC1V 7EY",
    "missionGroup":"",
    "longitude":-0.117099,
    "latitude":51.517742,
    "easting":530740,
    "northing":181549
  },
  {
    "institutionId":"0174",
    "guardianHeiTitle":"Stirling",
    "ukPrn":"10007804",
    "providerName":"UNIVERSITY OF STIRLING",
    "postcode":"FK9 4LA",
    "missionGroup":"",
    "longitude":-3.926787,
    "latitude":56.149207,
    "easting":280397,
    "northing":696841
  },
  {
    "institutionId":"0016",
    "guardianHeiTitle":"Edge Hill",
    "ukPrn":"10007823",
    "providerName":"EDGE HILL UNIVERSITY",
    "postcode":"L39 4QP",
    "missionGroup":"",
    "longitude":-2.873372,
    "latitude":53.559906,
    "easting":342245,
    "northing":407385
  },
  {
    "institutionId":"0161",
    "guardianHeiTitle":"Surrey",
    "ukPrn":"10007160",
    "providerName":"UNIVERSITY OF SURREY",
    "postcode":"GU2 7XH",
    "missionGroup":"",
    "longitude":-0.587925,
    "latitude":51.242568,
    "easting":498663,
    "northing":150213
  },
  {
    "institutionId":"0014",
    "guardianHeiTitle":"St Mark and St John",
    "ukPrn":"10004206",
    "providerName":"COLLEGE OF ST. MARK AND ST. JOHN FOUNDATION (THE)",
    "postcode":"PL6 8BH",
    "missionGroup":"",
    "longitude":-4.110286,
    "latitude":50.421023,
    "easting":250187,
    "northing":60037
  },
  {
    "institutionId":"0118",
    "guardianHeiTitle":"Essex",
    "ukPrn":"10007791",
    "providerName":"UNIVERSITY OF ESSEX",
    "postcode":"CO4 3SQ",
    "missionGroup":"",
    "longitude":0.945058,
    "latitude":51.876569,
    "easting":602815,
    "northing":223876
  },
  {
    "institutionId":"0209",
    "guardianHeiTitle":"The Liverpool Institute for Performing Arts",
    "ukPrn":"10003945",
    "providerName":"THE LIVERPOOL INSTITUTE FOR PERFORMING ARTS",
    "postcode":"L1 9HF",
    "missionGroup":"",
    "longitude":-2.972271,
    "latitude":53.399674,
    "easting":335451,
    "northing":389644
  },
  {
    "institutionId":"0157",
    "guardianHeiTitle":"Reading",
    "ukPrn":"10007802",
    "providerName":"UNIVERSITY OF READING",
    "postcode":"RG6 6UR",
    "missionGroup":"",
    "longitude":-0.947088,
    "latitude":51.440564,
    "easting":473277,
    "northing":171811
  },
  {
    "institutionId":"0162",
    "guardianHeiTitle":"Sussex",
    "ukPrn":"10007806",
    "providerName":"UNIVERSITY OF SUSSEX",
    "postcode":"BN1 9RH",
    "missionGroup":"",
    "longitude":-0.087049,
    "latitude":50.864464,
    "easting":534715,
    "northing":108961
  },
  {
    "institutionId":"0122",
    "guardianHeiTitle":"Kent",
    "ukPrn":"10007150",
    "providerName":"UNIVERSITY OF KENT",
    "postcode":"CT2 7NZ",
    "missionGroup":"NCUK",
    "longitude":1.070918,
    "latitude":51.298491,
    "easting":614178,
    "northing":159963
  },
  {
    "institutionId":"0026",
    "guardianHeiTitle":"Bedfordshire",
    "ukPrn":"10007152",
    "providerName":"UNIVERSITY OF BEDFORDSHIRE",
    "postcode":"LU1 3JU",
    "missionGroup":"Million_Plus",
    "longitude":-0.411382,
    "latitude":51.87787,
    "easting":509451,
    "northing":221114
  },
  {
    "institutionId":"0114",
    "guardianHeiTitle":"Cambridge",
    "ukPrn":"10007788",
    "providerName":"UNIVERSITY OF CAMBRIDGE",
    "postcode":"CB2 1TN",
    "missionGroup":"Russell_Group",
    "longitude":0.116642,
    "latitude":52.205317,
    "easting":544734,
    "northing":258453
  },
  {
    "institutionId":"0028",
    "guardianHeiTitle":"Newman",
    "ukPrn":"10007832",
    "providerName":"NEWMAN UNIVERSITY COLLEGE",
    "postcode":"B32 3NT",
    "missionGroup":"",
    "longitude":-1.995022,
    "latitude":52.434137,
    "easting":400435,
    "northing":281794
  },
  {
    "institutionId":"0068",
    "guardianHeiTitle":"De Montfort",
    "ukPrn":"10001883",
    "providerName":"DE MONTFORT UNIVERSITY",
    "postcode":"LE1 9BH",
    "missionGroup":"University_Alliance",
    "longitude":-1.139356,
    "latitude":52.631833,
    "easting":458346,
    "northing":304132
  },
  {
    "institutionId":"0167",
    "guardianHeiTitle":"Edinburgh",
    "ukPrn":"10007790",
    "providerName":"UNIVERSITY OF EDINBURGH",
    "postcode":"EH8 9YL",
    "missionGroup":"Russell_Group",
    "longitude":-3.187348,
    "latitude":55.947687,
    "easting":325946,
    "northing":673376
  },
  {
    "institutionId":"0124",
    "guardianHeiTitle":"Leeds",
    "ukPrn":"10007795",
    "providerName":"UNIVERSITY OF LEEDS",
    "postcode":"LS2 9JT",
    "missionGroup":"N8_Research_Partnership, White_Rose_University_Consortium, Russell_Group",
    "longitude":-1.552797,
    "latitude":53.808494,
    "easting":429547,
    "northing":434780
  },
  {
    "institutionId":"0184",
    "guardianHeiTitle":"Queen's, Belfast",
    "ukPrn":"10005343",
    "providerName":"THE QUEEN'S UNIVERSITY OF BELFAST",
    "postcode":"BT7 1NN",
    "missionGroup":"NCUK, Russell_Group",
    "longitude":null,
    "latitude":null,
    "easting":null,
    "northing":null
  },
  {
    "institutionId":"0064",
    "guardianHeiTitle":"Leeds Beckett",
    "ukPrn":"10003861",
    "providerName":"LEEDS BECKETT UNIVERSITY",
    "postcode":"LS1 3HB",
    "missionGroup":"Million_Plus",
    "longitude":-1.547405,
    "latitude":53.802964,
    "easting":429906,
    "northing":434167
  },
  {
    "institutionId":"0107",
    "guardianHeiTitle":"Edinburgh Napier",
    "ukPrn":"10007772",
    "providerName":"EDINBURGH NAPIER UNIVERSITY",
    "postcode":"EH11 4BN",
    "missionGroup":"Million_Plus",
    "longitude":-3.28847,
    "latitude":55.924071,
    "easting":319582,
    "northing":670861
  },
  {
    "institutionId":"0095",
    "guardianHeiTitle":"Abertay Dundee",
    "ukPrn":"10007849",
    "providerName":"UNIVERSITY OF ABERTAY DUNDEE",
    "postcode":"DD1 1HG",
    "missionGroup":"Million_Plus",
    "longitude":-2.974381,
    "latitude":56.463143,
    "easting":340057,
    "northing":730538
  },
  {
    "institutionId":"0089",
    "guardianHeiTitle":"Cardiff Met",
    "ukPrn":"10007854",
    "providerName":"CARDIFF METROPOLITAN UNIVERSITY",
    "postcode":"CF5 2SG",
    "missionGroup":"University_Alliance",
    "longitude":-3.223617,
    "latitude":51.483555,
    "easting":315131,
    "northing":176777
  },
  {
    "institutionId":"0081",
    "guardianHeiTitle":"UWE Bristol",
    "ukPrn":"10007164",
    "providerName":"UNIVERSITY OF THE WEST OF ENGLAND, BRISTOL",
    "postcode":"BS16 1QY",
    "missionGroup":"University_Alliance",
    "longitude":-2.547491,
    "latitude":51.500205,
    "easting":362093,
    "northing":178061
  },
  {
    "institutionId":"0201",
    "guardianHeiTitle":"Courtauld Institute",
    "ukPrn":"10007761",
    "providerName":"COURTAULD INSTITUTE OF ART",
    "postcode":"WC2R 0RN",
    "missionGroup":"",
    "longitude":-0.116912,
    "latitude":51.510734,
    "easting":530773,
    "northing":180770
  },
  {
    "institutionId":"0113",
    "guardianHeiTitle":"Brunel",
    "ukPrn":"10000961",
    "providerName":"BRUNEL UNIVERSITY LONDON",
    "postcode":"UB8 3PH",
    "missionGroup":"",
    "longitude":-0.472835,
    "latitude":51.532849,
    "easting":506024,
    "northing":182654
  },
  {
    "institutionId":"0034",
    "guardianHeiTitle":"Royal College of Music",
    "ukPrn":"10007778",
    "providerName":"ROYAL COLLEGE OF MUSIC",
    "postcode":"SW7 2BS",
    "missionGroup":"",
    "longitude":-0.176889,
    "latitude":51.499281,
    "easting":526643,
    "northing":179391
  },
  {
    "institutionId":"0066",
    "guardianHeiTitle":"Manchester Met",
    "ukPrn":"10004180",
    "providerName":"THE MANCHESTER METROPOLITAN UNIVERSITY",
    "postcode":"M15 6BH",
    "missionGroup":"University_Alliance",
    "longitude":-2.239504,
    "latitude":53.470699,
    "easting":384199,
    "northing":397132
  },
  {
    "institutionId":"0030",
    "guardianHeiTitle":"Ravensbourne",
    "ukPrn":"10005389",
    "providerName":"RAVENSBOURNE LIMITED",
    "postcode":"SE10 0EW",
    "missionGroup":"",
    "longitude":0.005266,
    "latitude":51.501478,
    "easting":539279,
    "northing":179966
  },
  {
    "institutionId":"0007",
    "guardianHeiTitle":"Bishop Grosseteste",
    "ukPrn":"10007811",
    "providerName":"BISHOP GROSSETESTE UNIVERSITY COLLEGE LINCOLN",
    "postcode":"LN1 3DY",
    "missionGroup":"",
    "longitude":-0.535716,
    "latitude":53.244036,
    "easting":497811,
    "northing":372888
  },
  {
    "institutionId":"0063",
    "guardianHeiTitle":"Kingston",
    "ukPrn":"10003678",
    "providerName":"KINGSTON UNIVERSITY",
    "postcode":"KT1 1LQ",
    "missionGroup":"University_Alliance, NCUK",
    "longitude":-0.307824,
    "latitude":51.406308,
    "easting":517794,
    "northing":168834
  },
  {
    "institutionId":"0086",
    "guardianHeiTitle":"South Wales (Newport)",
    "ukPrn":"10007853",
    "providerName":"UNIVERSITY OF WALES, NEWPORT",
    "postcode":"NP18 3QT",
    "missionGroup":"University_Alliance",
    "longitude":-2.96323,
    "latitude":51.615142,
    "easting":333404,
    "northing":191141
  },
  {
    "institutionId":"0085",
    "guardianHeiTitle":"Wolverhampton",
    "ukPrn":"10007166",
    "providerName":"UNIVERSITY OF WOLVERHAMPTON",
    "postcode":"WV1 1LY",
    "missionGroup":"Million_Plus",
    "longitude":-2.128159,
    "latitude":52.588308,
    "easting":391414,
    "northing":298951
  },
  {
    "institutionId":"0115",
    "guardianHeiTitle":"City",
    "ukPrn":"10001478",
    "providerName":"THE CITY UNIVERSITY",
    "postcode":"EC1V 0HB",
    "missionGroup":"",
    "longitude":-0.102296,
    "latitude":51.527791,
    "easting":531738,
    "northing":182693
  },
  {
    "institutionId":"0206",
    "guardianHeiTitle":"University for the Creative Arts",
    "ukPrn":"10006427",
    "providerName":"UNIVERSITY FOR THE CREATIVE ARTS",
    "postcode":"GU9 7DS",
    "missionGroup":"",
    "longitude":-0.805496,
    "latitude":51.215767,
    "easting":483525,
    "northing":146963
  },
  {
    "institutionId":"0104",
    "guardianHeiTitle":"Robert Gordon",
    "ukPrn":"10005500",
    "providerName":"THE ROBERT GORDON UNIVERSITY",
    "postcode":"AB10 7FY",
    "missionGroup":"",
    "longitude":-2.143673,
    "latitude":57.118078,
    "easting":391399,
    "northing":803026
  },
  {
    "institutionId":"0194",
    "guardianHeiTitle":"St Mary's UC, Belfast",
    "ukPrn":"10008026",
    "providerName":"ST MARY'S UNIVERSITY COLLEGE",
    "postcode":"BT12 6FE",
    "missionGroup":"",
    "longitude":null,
    "latitude":null,
    "easting":null,
    "northing":null
  },
  {
    "institutionId":"0196",
    "guardianHeiTitle":"Highlands & Islands",
    "ukPrn":"10007114",
    "providerName":"UNIVERSITY OF THE HIGHLANDS AND ISLANDS",
    "postcode":"IV3 5SQ",
    "missionGroup":"",
    "longitude":-4.230795,
    "latitude":57.469675,
    "easting":266305,
    "northing":844355
  },
  {
    "institutionId":"0041",
    "guardianHeiTitle":"Trinity Laban Conservatoire",
    "ukPrn":"10008017",
    "providerName":"TRINITY LABAN CONSERVATOIRE OF MUSIC AND DANCE LTD",
    "postcode":"SE10 9JF",
    "missionGroup":"",
    "longitude":-0.007171,
    "latitude":51.483596,
    "easting":538470,
    "northing":177954
  },
  {
    "institutionId":"0139",
    "guardianHeiTitle":"Queen Mary",
    "ukPrn":"10007775",
    "providerName":"QUEEN MARY UNIVERSITY OF LONDON",
    "postcode":"E1 4NS",
    "missionGroup":"NCUK, Russell_Group",
    "longitude":-0.040505,
    "latitude":51.523412,
    "easting":536037,
    "northing":182319
  },
  {
    "institutionId":"0058",
    "guardianHeiTitle":"East London",
    "ukPrn":"10007144",
    "providerName":"UNIVERSITY OF EAST LONDON",
    "postcode":"E16 2RD",
    "missionGroup":"Million_Plus",
    "longitude":0.064797,
    "latitude":51.507396,
    "easting":543392,
    "northing":180739
  },
  {
    "institutionId":"0131",
    "guardianHeiTitle":"Goldsmiths",
    "ukPrn":"10002718",
    "providerName":"GOLDSMITHS' COLLEGE",
    "postcode":"SE14 6NW",
    "missionGroup":"",
    "longitude":-0.035375,
    "latitude":51.474144,
    "easting":536540,
    "northing":176850
  },
  {
    "institutionId":"0151",
    "guardianHeiTitle":"University of London",
    "ukPrn":"10007797",
    "providerName":"UNIVERSITY OF LONDON",
    "postcode":"WC1E 7HU",
    "missionGroup":"",
    "longitude":-0.127819,
    "latitude":51.520998,
    "easting":529987,
    "northing":181892
  },
  {
    "institutionId":"0079",
    "guardianHeiTitle":"Teesside",
    "ukPrn":"10007161",
    "providerName":"TEESSIDE UNIVERSITY",
    "postcode":"TS1 3BA",
    "missionGroup":"University_Alliance",
    "longitude":-1.234709,
    "latitude":54.572089,
    "easting":449574,
    "northing":519920
  },
  {
    "institutionId":"0069",
    "guardianHeiTitle":"Northumbria",
    "ukPrn":"10001282",
    "providerName":"UNIVERSITY OF NORTHUMBRIA AT NEWCASTLE",
    "postcode":"NE1 8ST",
    "missionGroup":"University_Alliance",
    "longitude":-1.607512,
    "latitude":54.976769,
    "easting":425221,
    "northing":564754
  },
  {
    "institutionId":"0077",
    "guardianHeiTitle":"Staffordshire",
    "ukPrn":"10006299",
    "providerName":"STAFFORDSHIRE UNIVERSITY",
    "postcode":"ST4 2DE",
    "missionGroup":"Million_Plus",
    "longitude":-2.182605,
    "latitude":53.010097,
    "easting":387845,
    "northing":345879
  },
  {
    "institutionId":"0054",
    "guardianHeiTitle":"Gloucestershire",
    "ukPrn":"10007145",
    "providerName":"UNIVERSITY OF GLOUCESTERSHIRE",
    "postcode":"GL50 2RH",
    "missionGroup":"",
    "longitude":-2.088781,
    "latitude":51.887504,
    "easting":393986,
    "northing":220997
  },
  {
    "institutionId":"0052",
    "guardianHeiTitle":"Birmingham City",
    "ukPrn":"10007140",
    "providerName":"BIRMINGHAM CITY UNIVERSITY",
    "postcode":"B42 2SU",
    "missionGroup":"Million_Plus",
    "longitude":-1.897282,
    "latitude":52.517286,
    "easting":407067,
    "northing":291048
  },
  {
    "institutionId":"0010",
    "guardianHeiTitle":"Royal Central School of Speech & Drama",
    "ukPrn":"10007816",
    "providerName":"CENTRAL SCHOOL OF SPEECH AND DRAMA(THE)",
    "postcode":"NW3 3HY",
    "missionGroup":"",
    "longitude":-0.174179,
    "latitude":51.544337,
    "easting":526706,
    "northing":184406
  },
  {
    "institutionId":"0168",
    "guardianHeiTitle":"Glasgow",
    "ukPrn":"10007794",
    "providerName":"UNIVERSITY OF GLASGOW",
    "postcode":"G12 8QQ",
    "missionGroup":"Russell_Group",
    "longitude":-4.288345,
    "latitude":55.871746,
    "easting":256916,
    "northing":666655
  },
  {
    "institutionId":"0056",
    "guardianHeiTitle":"Coventry",
    "ukPrn":"10001726",
    "providerName":"COVENTRY UNIVERSITY",
    "postcode":"CV1 5FB",
    "missionGroup":"University_Alliance",
    "longitude":-1.505713,
    "latitude":52.408016,
    "easting":433721,
    "northing":279003
  },
  {
    "institutionId":"0074",
    "guardianHeiTitle":"Portsmouth",
    "ukPrn":"10007155",
    "providerName":"UNIVERSITY OF PORTSMOUTH",
    "postcode":"PO1 2UP",
    "missionGroup":"University_Alliance",
    "longitude":-1.093571,
    "latitude":50.795266,
    "easting":463980,
    "northing":99915
  },
  {
    "institutionId":"0097",
    "guardianHeiTitle":"Glasgow School of Art",
    "ukPrn":"10002681",
    "providerName":"GLASGOW SCHOOL OF ART",
    "postcode":"G3 6RQ",
    "missionGroup":"",
    "longitude":-4.263391,
    "latitude":55.865953,
    "easting":258456,
    "northing":665959
  },
  {
    "institutionId":"0021",
    "guardianHeiTitle":"Winchester",
    "ukPrn":"10003614",
    "providerName":"UNIVERSITY OF WINCHESTER",
    "postcode":"SO22 4NR",
    "missionGroup":"",
    "longitude":-1.326928,
    "latitude":51.060033,
    "easting":447265,
    "northing":129182
  },
  {
    "institutionId":"0177",
    "guardianHeiTitle":"Aberystwyth",
    "ukPrn":"10007856",
    "providerName":"PRIFYSGOL ABERYSTWYTH",
    "postcode":"SY23 2AX",
    "missionGroup":"",
    "longitude":-4.043595,
    "latitude":52.403488,
    "easting":261072,
    "northing":280350
  },
  {
    "institutionId":"0073",
    "guardianHeiTitle":"Plymouth",
    "ukPrn":"10007801",
    "providerName":"UNIVERSITY OF PLYMOUTH",
    "postcode":"PL4 8AA",
    "missionGroup":"University_Alliance",
    "longitude":-4.138393,
    "latitude":50.375186,
    "easting":248044,
    "northing":54998
  },
  {
    "institutionId":"0117",
    "guardianHeiTitle":"UEA",
    "ukPrn":"10007789",
    "providerName":"UNIVERSITY OF EAST ANGLIA",
    "postcode":"NR4 7TJ",
    "missionGroup":"",
    "longitude":1.241412,
    "latitude":52.622394,
    "easting":619497,
    "northing":307667
  },
  {
    "institutionId":"0112",
    "guardianHeiTitle":"Bristol",
    "ukPrn":"10007786",
    "providerName":"UNIVERSITY OF BRISTOL",
    "postcode":"BS8 1TH",
    "missionGroup":"NCUK, Russell_Group",
    "longitude":-2.603292,
    "latitude":51.459064,
    "easting":358182,
    "northing":173516
  },
  {
    "institutionId":"0173",
    "guardianHeiTitle":"St Andrews",
    "ukPrn":"10007803",
    "providerName":"UNIVERSITY OF ST ANDREWS",
    "postcode":"KY16 9AJ",
    "missionGroup":"",
    "longitude":-2.793016,
    "latitude":56.341205,
    "easting":351076,
    "northing":716822
  },
  {
    "institutionId":"0049",
    "guardianHeiTitle":"Bolton",
    "ukPrn":"10006841",
    "providerName":"THE UNIVERSITY OF BOLTON",
    "postcode":"BL3 5AB",
    "missionGroup":"Million_Plus",
    "longitude":-2.436236,
    "latitude":53.573527,
    "easting":371210,
    "northing":408634
  },
  {
    "institutionId":"0100",
    "guardianHeiTitle":"Queen Margaret",
    "ukPrn":"10005337",
    "providerName":"QUEEN MARGARET UNIVERSITY, EDINBURGH",
    "postcode":"EH21 6UU",
    "missionGroup":"",
    "longitude":-3.073062,
    "latitude":55.931304,
    "easting":333055,
    "northing":671436
  },
  {
    "institutionId":"0163",
    "guardianHeiTitle":"Warwick",
    "ukPrn":"10007163",
    "providerName":"UNIVERSITY OF WARWICK",
    "postcode":"CV4 8UW",
    "missionGroup":"Russell_Group",
    "longitude":-1.560767,
    "latitude":52.388418,
    "easting":429989,
    "northing":276799
  },
  {
    "institutionId":"0185",
    "guardianHeiTitle":"Ulster",
    "ukPrn":"10007807",
    "providerName":"UNIVERSITY OF ULSTER",
    "postcode":"BT15 1ED",
    "missionGroup":"NCUK",
    "longitude":null,
    "latitude":null,
    "easting":null,
    "northing":null
  },
  {
    "institutionId":"0027",
    "guardianHeiTitle":"Northampton",
    "ukPrn":"10007138",
    "providerName":"THE UNIVERSITY OF NORTHAMPTON",
    "postcode":"NN2 7AL",
    "missionGroup":"",
    "longitude":-0.883074,
    "latitude":52.272007,
    "easting":476309,
    "northing":264347
  },
  {
    "institutionId":"0125",
    "guardianHeiTitle":"Leicester",
    "ukPrn":"10007796",
    "providerName":"UNIVERSITY OF LEICESTER",
    "postcode":"LE1 7RH",
    "missionGroup":"",
    "longitude":-1.123802,
    "latitude":52.621937,
    "easting":459412,
    "northing":303044
  },
  {
    "institutionId":"0200",
    "guardianHeiTitle":"University College Birmingham",
    "ukPrn":"10000712",
    "providerName":"UNIVERSITY COLLEGE BIRMINGHAM",
    "postcode":"B3 1JB",
    "missionGroup":"",
    "longitude":-1.905934,
    "latitude":52.481855,
    "easting":406485,
    "northing":287106
  },
  {
    "institutionId":"0106",
    "guardianHeiTitle":"Glasgow Caledonian",
    "ukPrn":"10007762",
    "providerName":"GLASGOW CALEDONIAN UNIVERSITY",
    "postcode":"G4 0BA",
    "missionGroup":"University_Alliance",
    "longitude":-4.250553,
    "latitude":55.866161,
    "easting":259260,
    "northing":665956
  },
  {
    "institutionId":"0083",
    "guardianHeiTitle":"Westminster",
    "ukPrn":"10007165",
    "providerName":"THE UNIVERSITY OF WESTMINSTER",
    "postcode":"W1B 2HW",
    "missionGroup":"",
    "longitude":-0.143341,
    "latitude":51.516794,
    "easting":528922,
    "northing":181397
  },
  {
    "institutionId":"0061",
    "guardianHeiTitle":"Huddersfield",
    "ukPrn":"10007148",
    "providerName":"UNIVERSITY OF HUDDERSFIELD",
    "postcode":"HD1 3DH",
    "missionGroup":"University_Alliance",
    "longitude":-1.777712,
    "latitude":53.64373,
    "easting":414793,
    "northing":416379
  },
  {
    "institutionId":"0195",
    "guardianHeiTitle":"Royal Agricultural University",
    "ukPrn":"10005545",
    "providerName":"ROYAL AGRICULTURAL COLLEGE",
    "postcode":"GL7 6JS",
    "missionGroup":"",
    "longitude":-1.994995,
    "latitude":51.709495,
    "easting":400442,
    "northing":201195
  },
  {
    "institutionId":"0205",
    "guardianHeiTitle":"Heythrop College",
    "ukPrn":"10007765",
    "providerName":"HEYTHROP COLLEGE",
    "postcode":"W8 5HN",
    "missionGroup":"",
    "longitude":-0.190884,
    "latitude":51.499884,
    "easting":525670,
    "northing":179434
  },
  {
    "institutionId":"0182",
    "guardianHeiTitle":"Royal Welsh College",
    "ukPrn":"10007838",
    "providerName":"ROYAL WELSH COLLEGE OF MUSIC AND DRAMA LIMITED",
    "postcode":"CF10 3ER",
    "missionGroup":"",
    "longitude":-3.183865,
    "latitude":51.485645,
    "easting":317895,
    "northing":176964
  },
  {
    "institutionId":"0032",
    "guardianHeiTitle":"Rose Bruford College",
    "ukPrn":"10005523",
    "providerName":"ROSE BRUFORD COLLEGE",
    "postcode":"DA15 9DF",
    "missionGroup":"",
    "longitude":0.106805,
    "latitude":51.439004,
    "easting":546526,
    "northing":173217
  },
  {
    "institutionId":"0158",
    "guardianHeiTitle":"Salford",
    "ukPrn":"10007156",
    "providerName":"UNIVERSITY OF SALFORD",
    "postcode":"M5 4WT",
    "missionGroup":"University_Alliance",
    "longitude":-2.270665,
    "latitude":53.483558,
    "easting":382136,
    "northing":398570
  },
  {
    "institutionId":"0189",
    "guardianHeiTitle":"Writtle College",
    "ukPrn":"10007657",
    "providerName":"WRITTLE COLLEGE",
    "postcode":"CM1 3RR",
    "missionGroup":"",
    "longitude":0.428134,
    "latitude":51.737004,
    "easting":567756,
    "northing":207044
  },
  {
    "institutionId":"0137",
    "guardianHeiTitle":"London School of Economics",
    "ukPrn":"10004063",
    "providerName":"LONDON SCHOOL OF ECONOMICS & POLITICAL SCIENCE",
    "postcode":"WC2A 2AE",
    "missionGroup":"Russell_Group",
    "longitude":-0.116707,
    "latitude":51.513968,
    "easting":530778,
    "northing":181130
  },
  {
    "institutionId":"0067",
    "guardianHeiTitle":"Middlesex",
    "ukPrn":"10004351",
    "providerName":"MIDDLESEX UNIVERSITY",
    "postcode":"NW4 4BT",
    "missionGroup":"Million_Plus",
    "longitude":-0.228415,
    "latitude":51.589717,
    "easting":522823,
    "northing":189360
  },
  {
    "institutionId":"0001",
    "guardianHeiTitle":"The Open University",
    "ukPrn":"10007773",
    "providerName":"OPEN UNIVERSITY(THE)",
    "postcode":"MK7 6AA",
    "missionGroup":"University_Alliance",
    "longitude":-0.709726,
    "latitude":52.024924,
    "easting":488625,
    "northing":237063
  },
  {
    "institutionId":"0037",
    "guardianHeiTitle":"Southampton Solent",
    "ukPrn":"10006022",
    "providerName":"SOUTHAMPTON SOLENT UNIVERSITY",
    "postcode":"SO14 0YN",
    "missionGroup":"",
    "longitude":-1.400157,
    "latitude":50.907738,
    "easting":442271,
    "northing":112202
  },
  {
    "institutionId":"0164",
    "guardianHeiTitle":"York",
    "ukPrn":"10007167",
    "providerName":"UNIVERSITY OF YORK",
    "postcode":"YO10 5DD",
    "missionGroup":"N8_Research_Partnership, White_Rose_University_Consortium, Russell_Group",
    "longitude":-1.053553,
    "latitude":53.948437,
    "easting":462215,
    "northing":450672
  },
  {
    "institutionId":"0009",
    "guardianHeiTitle":"Bucks New University",
    "ukPrn":"10000975",
    "providerName":"BUCKINGHAMSHIRE NEW UNIVERSITY",
    "postcode":"HP11 2JZ",
    "missionGroup":"",
    "longitude":-0.752021,
    "latitude":51.627518,
    "easting":486480,
    "northing":192815
  },
  {
    "institutionId":"0062",
    "guardianHeiTitle":"Lincoln",
    "ukPrn":"10007151",
    "providerName":"UNIVERSITY OF LINCOLN",
    "postcode":"LN6 7TS",
    "missionGroup":"University_Alliance",
    "longitude":-0.549237,
    "latitude":53.228855,
    "easting":496943,
    "northing":371181
  },
  {
    "institutionId":"0149",
    "guardianHeiTitle":"UCL",
    "ukPrn":"10007784",
    "providerName":"UNIVERSITY COLLEGE LONDON",
    "postcode":"WC1E 6BT",
    "missionGroup":"Russell_Group",
    "longitude":-0.133401,
    "latitude":51.524774,
    "easting":529589,
    "northing":182302
  },
  {
    "institutionId":"0051",
    "guardianHeiTitle":"Brighton",
    "ukPrn":"10000886",
    "providerName":"UNIVERSITY OF BRIGHTON",
    "postcode":"BN2 4AT",
    "missionGroup":"",
    "longitude":-0.119142,
    "latitude":50.842448,
    "easting":532519,
    "northing":106455
  },
  {
    "institutionId":"0152",
    "guardianHeiTitle":"Loughborough",
    "ukPrn":"10004113",
    "providerName":"LOUGHBOROUGH UNIVERSITY",
    "postcode":"LE11 3TU",
    "missionGroup":"",
    "longitude":-1.229467,
    "latitude":52.764892,
    "easting":452089,
    "northing":318864
  },
  {
    "institutionId":"0087",
    "guardianHeiTitle":"Glynd?r",
    "ukPrn":"10007833",
    "providerName":"GLYNDWR UNIVERSITY",
    "postcode":"LL11 2AW",
    "missionGroup":"",
    "longitude":-3.00564,
    "latitude":53.052979,
    "easting":332690,
    "northing":351107
  },
  {
    "institutionId":"0138",
    "guardianHeiTitle":"London School of Hygiene and Tropical Medicine",
    "ukPrn":"10007771",
    "providerName":"LONDON SCHOOL OF HYGIENE AND TROPICAL MEDICINE",
    "postcode":"WC1E 7HT",
    "missionGroup":"",
    "longitude":-0.130661,
    "latitude":51.520927,
    "easting":529790,
    "northing":181879
  },
  {
    "institutionId":"0023",
    "guardianHeiTitle":"Liverpool Hope",
    "ukPrn":"10003956",
    "providerName":"LIVERPOOL HOPE UNIVERSITY",
    "postcode":"L16 9JD",
    "missionGroup":"",
    "longitude":-2.891936,
    "latitude":53.391491,
    "easting":340781,
    "northing":388664
  },
  {
    "institutionId":"0060",
    "guardianHeiTitle":"Hertfordshire",
    "ukPrn":"10007147",
    "providerName":"UNIVERSITY OF HERTFORDSHIRE",
    "postcode":"AL10 9AB",
    "missionGroup":"University_Alliance",
    "longitude":-0.24215,
    "latitude":51.752882,
    "easting":521435,
    "northing":207482
  },
  {
    "institutionId":"0159",
    "guardianHeiTitle":"Sheffield",
    "ukPrn":"10007157",
    "providerName":"UNIVERSITY OF SHEFFIELD",
    "postcode":"S10 2TN",
    "missionGroup":"N8_Research_Partnership, White_Rose_University_Consortium, Russell_Group",
    "longitude":-1.488709,
    "latitude":53.381409,
    "easting":434108,
    "northing":387293
  },
  {
    "institutionId":"0018",
    "guardianHeiTitle":"Harper Adams",
    "ukPrn":"10002901",
    "providerName":"HARPER ADAMS UNIVERSITY COLLEGE",
    "postcode":"TF10 8NB",
    "missionGroup":"",
    "longitude":-2.42538,
    "latitude":52.780019,
    "easting":371404,
    "northing":320354
  },
  {
    "institutionId":"0116",
    "guardianHeiTitle":"Durham",
    "ukPrn":"10007143",
    "providerName":"UNIVERSITY OF DURHAM",
    "postcode":"DH1 3LE",
    "missionGroup":"N8_Research_Partnership, Russell_Group",
    "longitude":-1.571868,
    "latitude":54.768149,
    "easting":427644,
    "northing":541552
  },
  {
    "institutionId":"0071",
    "guardianHeiTitle":"Nottingham Trent",
    "ukPrn":"10004797",
    "providerName":"NOTTINGHAM TRENT UNIVERSITY",
    "postcode":"NG1 4BU",
    "missionGroup":"University_Alliance",
    "longitude":-1.152002,
    "latitude":52.956383,
    "easting":457065,
    "northing":340224
  },
  {
    "institutionId":"0169",
    "guardianHeiTitle":"Strathclyde",
    "ukPrn":"10007805",
    "providerName":"UNIVERSITY OF STRATHCLYDE",
    "postcode":"G1 1XQ",
    "missionGroup":"",
    "longitude":-4.244586,
    "latitude":55.861363,
    "easting":259616,
    "northing":665410
  },
  {
    "institutionId":"0171",
    "guardianHeiTitle":"Heriot-Watt",
    "ukPrn":"10007764",
    "providerName":"HERIOT-WATT UNIVERSITY",
    "postcode":"EH14 4AS",
    "missionGroup":"",
    "longitude":-3.320697,
    "latitude":55.909398,
    "easting":317537,
    "northing":669266
  },
  {
    "institutionId":"0082",
    "guardianHeiTitle":"Chichester",
    "ukPrn":"10007137",
    "providerName":"THE UNIVERSITY OF CHICHESTER",
    "postcode":"PO19 6PE",
    "missionGroup":"",
    "longitude":-0.774409,
    "latitude":50.844268,
    "easting":486383,
    "northing":105688
  },
  {
    "institutionId":"0135",
    "guardianHeiTitle":"London Business School",
    "ukPrn":"10007769",
    "providerName":"LONDON BUSINESS SCHOOL",
    "postcode":"NW1 4SA",
    "missionGroup":"",
    "longitude":-0.161353,
    "latitude":51.526583,
    "easting":527645,
    "northing":182454
  },
  {
    "institutionId":"0110",
    "guardianHeiTitle":"Birmingham",
    "ukPrn":"10006840",
    "providerName":"UNIVERSITY OF BIRMINGHAM",
    "postcode":"B15 2TT",
    "missionGroup":"NCUK, Russell_Group",
    "longitude":-1.930855,
    "latitude":52.448986,
    "easting":404796,
    "northing":283448
  },
  {
    "institutionId":"0038",
    "guardianHeiTitle":"Cumbria",
    "ukPrn":"10007842",
    "providerName":"THE UNIVERSITY OF CUMBRIA",
    "postcode":"CA1 2HH",
    "missionGroup":"Million_Plus",
    "longitude":-2.921482,
    "latitude":54.891124,
    "easting":340992,
    "northing":555542
  },
  {
    "institutionId":"0119",
    "guardianHeiTitle":"Exeter",
    "ukPrn":"10007792",
    "providerName":"UNIVERSITY OF EXETER",
    "postcode":"EX4 4QJ",
    "missionGroup":"Russell_Group",
    "longitude":-3.53437,
    "latitude":50.735199,
    "easting":291819,
    "northing":93967
  },
  {
    "institutionId":"0075",
    "guardianHeiTitle":"Sheffield Hallam",
    "ukPrn":"10005790",
    "providerName":"SHEFFIELD HALLAM UNIVERSITY",
    "postcode":"S1 1WB",
    "missionGroup":"University_Alliance",
    "longitude":-1.465255,
    "latitude":53.379212,
    "easting":435670,
    "northing":387060
  },
  {
    "institutionId":"0172",
    "guardianHeiTitle":"Dundee",
    "ukPrn":"10007852",
    "providerName":"UNIVERSITY OF DUNDEE",
    "postcode":"DD1 4HN",
    "missionGroup":"",
    "longitude":-2.97848,
    "latitude":56.4572,
    "easting":339795,
    "northing":729880
  },
  {
    "institutionId":"0031",
    "guardianHeiTitle":"Roehampton",
    "ukPrn":"10007776",
    "providerName":"ROEHAMPTON UNIVERSITY",
    "postcode":"SW15 5PJ",
    "missionGroup":"",
    "longitude":-0.245983,
    "latitude":51.455119,
    "easting":521965,
    "northing":174363
  },
  {
    "institutionId":"0175",
    "guardianHeiTitle":"SRUC",
    "ukPrn":"10005700",
    "providerName":"SRUC",
    "postcode":"EH9 3JG",
    "missionGroup":"",
    "longitude":-3.176533,
    "latitude":55.921607,
    "easting":326572,
    "northing":670462
  },
  {
    "institutionId":"0078",
    "guardianHeiTitle":"Sunderland",
    "ukPrn":"10007159",
    "providerName":"UNIVERSITY OF SUNDERLAND",
    "postcode":"SR1 3SD",
    "missionGroup":"Million_Plus",
    "longitude":-1.391361,
    "latitude":54.904502,
    "easting":439126,
    "northing":556811
  },
  {
    "institutionId":"0047",
    "guardianHeiTitle":"Anglia Ruskin",
    "ukPrn":"10000291",
    "providerName":"ANGLIA RUSKIN UNIVERSITY",
    "postcode":"CM1 1SQ",
    "missionGroup":"Million_Plus",
    "longitude":0.474311,
    "latitude":51.741266,
    "easting":570928,
    "northing":207625
  },
  {
    "institutionId":"0133",
    "guardianHeiTitle":"Institute of Education",
    "ukPrn":"10007766",
    "providerName":"INSTITUTE OF EDUCATION, UNIVERSITY OF LONDON",
    "postcode":"WC1H 0AL",
    "missionGroup":"",
    "longitude":-0.128481,
    "latitude":51.523473,
    "easting":529934,
    "northing":182166
  },
  {
    "institutionId":"0180",
    "guardianHeiTitle":"Swansea",
    "ukPrn":"10007855",
    "providerName":"SWANSEA UNIVERSITY",
    "postcode":"SA2 8PP",
    "missionGroup":"",
    "longitude":-3.980649,
    "latitude":51.609622,
    "easting":262948,
    "northing":191946
  },
  {
    "institutionId":"0141",
    "guardianHeiTitle":"Royal Holloway",
    "ukPrn":"10005553",
    "providerName":"ROYAL HOLLOWAY COLLEGE AND BEDFORD NEW COLLEGE",
    "postcode":"TW20 0EX",
    "missionGroup":"",
    "longitude":-0.567199,
    "latitude":51.425323,
    "easting":499713,
    "northing":170564
  },
  {
    "institutionId":"0003",
    "guardianHeiTitle":"Royal College of Art",
    "ukPrn":"10007777",
    "providerName":"ROYAL COLLEGE OF ART(THE)",
    "postcode":"SW7 2EU",
    "missionGroup":"",
    "longitude":-0.178449,
    "latitude":51.501355,
    "easting":526529,
    "northing":179619
  },
  {
    "institutionId":"0002",
    "guardianHeiTitle":"Cranfield University",
    "ukPrn":"10007822",
    "providerName":"CRANFIELD UNIVERSITY",
    "postcode":"MK43 0AL",
    "missionGroup":"",
    "longitude":-0.628735,
    "latitude":52.073929,
    "easting":494079,
    "northing":242615
  },
  {
    "institutionId":"0121",
    "guardianHeiTitle":"Keele",
    "ukPrn":"10007767",
    "providerName":"UNIVERSITY OF KEELE",
    "postcode":"ST5 5BG",
    "missionGroup":"",
    "longitude":-2.274598,
    "latitude":53.003969,
    "easting":381670,
    "northing":345217
  },
  {
    "institutionId":"0040",
    "guardianHeiTitle":"Leeds Trinity",
    "ukPrn":"10003863",
    "providerName":"LEEDS TRINITY UNIVERSITY COLLEGE",
    "postcode":"LS18 5HD",
    "missionGroup":"",
    "longitude":-1.6481,
    "latitude":53.848573,
    "easting":423249,
    "northing":439204
  },
  {
    "institutionId":"0134",
    "guardianHeiTitle":"King's College London",
    "ukPrn":"10003645",
    "providerName":"KING'S COLLEGE LONDON",
    "postcode":"WC2R 2LS",
    "missionGroup":"Russell_Group",
    "longitude":-0.116912,
    "latitude":51.510734,
    "easting":530773,
    "northing":180770
  },
  {
    "institutionId":"0145",
    "guardianHeiTitle":"St George's, UoL",
    "ukPrn":"10007782",
    "providerName":"ST GEORGE'S HOSPITAL MEDICAL SCHOOL",
    "postcode":"SW17 0RE",
    "missionGroup":"",
    "longitude":-0.173355,
    "latitude":51.427985,
    "easting":527086,
    "northing":171469
  },
  {
    "institutionId":"0190",
    "guardianHeiTitle":"Norwich University of the Arts",
    "ukPrn":"10004775",
    "providerName":"NORWICH UNIVERSITY COLLEGE OF THE ARTS",
    "postcode":"NR2 4SN",
    "missionGroup":"",
    "longitude":1.2966,
    "latitude":52.630313,
    "easting":623191,
    "northing":308717
  },
  {
    "institutionId":"0211",
    "guardianHeiTitle":"Leeds College of Art",
    "ukPrn":"10003854",
    "providerName":"LEEDS COLLEGE OF ART",
    "postcode":"LS2 9AQ",
    "missionGroup":"",
    "longitude":-1.55178,
    "latitude":53.808463,
    "easting":429614,
    "northing":434777
  },
  {
    "institutionId":"0108",
    "guardianHeiTitle":"Aston",
    "ukPrn":"10007759",
    "providerName":"ASTON UNIVERSITY",
    "postcode":"B4 7ET",
    "missionGroup":"NCUK",
    "longitude":-1.890947,
    "latitude":52.486651,
    "easting":407502,
    "northing":287641
  },
  {
    "institutionId":"0011",
    "guardianHeiTitle":"Chester",
    "ukPrn":"10007848",
    "providerName":"UNIVERSITY OF CHESTER",
    "postcode":"CH1 4BJ",
    "missionGroup":"",
    "longitude":-2.898063,
    "latitude":53.198657,
    "easting":340104,
    "northing":367217
  },
  {
    "institutionId":"0170",
    "guardianHeiTitle":"Aberdeen",
    "ukPrn":"10007783",
    "providerName":"UNIVERSITY OF ABERDEEN",
    "postcode":"AB24 3FX",
    "missionGroup":"",
    "longitude":-2.099129,
    "latitude":57.165003,
    "easting":394104,
    "northing":808245
  },
  {
    "institutionId":"0204",
    "guardianHeiTitle":"Manchester",
    "ukPrn":"10007798",
    "providerName":"THE UNIVERSITY OF MANCHESTER",
    "postcode":"M13 9PL",
    "missionGroup":"N8_Research_Partnership, Russell_Group",
    "longitude":-2.233222,
    "latitude":53.467943,
    "easting":384615,
    "northing":396824
  },
  {
    "institutionId":"0101",
    "guardianHeiTitle":"Royal Conservatoire of Scotland",
    "ukPrn":"10005561",
    "providerName":"ROYAL CONSERVATOIRE OF SCOTLAND",
    "postcode":"G2 3DB",
    "missionGroup":"",
    "longitude":-4.257632,
    "latitude":55.86614,
    "easting":258817,
    "northing":665968
  },
  {
    "institutionId":"0155",
    "guardianHeiTitle":"Nottingham",
    "ukPrn":"10007154",
    "providerName":"UNIVERSITY OF NOTTINGHAM",
    "postcode":"NG7 2RD",
    "missionGroup":"Russell_Group",
    "longitude":-1.186477,
    "latitude":52.941271,
    "easting":454768,
    "northing":338516
  },
  {
    "institutionId":"0193",
    "guardianHeiTitle":"Stranmillis UC",
    "ukPrn":"10008010",
    "providerName":"STRANMILLIS UNIVERSITY COLLEGE",
    "postcode":"BT9 5DY",
    "missionGroup":"",
    "longitude":null,
    "latitude":null,
    "easting":null,
    "northing":null
  },
  {
    "institutionId":"0154",
    "guardianHeiTitle":"Newcastle",
    "ukPrn":"10007799",
    "providerName":"UNIVERSITY OF NEWCASTLE UPON TYNE",
    "postcode":"NE1 7RU",
    "missionGroup":"N8_Research_Partnership, Russell_Group",
    "longitude":-1.615727,
    "latitude":54.980327,
    "easting":424693,
    "northing":565147
  },
  {
    "institutionId":"0178",
    "guardianHeiTitle":"Bangor",
    "ukPrn":"10007857",
    "providerName":"BANGOR UNIVERSITY",
    "postcode":"LL57 2DG",
    "missionGroup":"",
    "longitude":-4.129505,
    "latitude":53.229236,
    "easting":257949,
    "northing":372359
  },
  {
    "institutionId":"0203",
    "guardianHeiTitle":"Buckingham",
    "ukPrn":"10007787",
    "providerName":"THE UNIVERSITY OF BUCKINGHAM",
    "postcode":"MK18 1EG",
    "missionGroup":"",
    "longitude":-0.99182,
    "latitude":51.996018,
    "easting":469315,
    "northing":233542
  },
  {
    "institutionId":"0120",
    "guardianHeiTitle":"Hull",
    "ukPrn":"10007149",
    "providerName":"UNIVERSITY OF HULL",
    "postcode":"HU6 7RX",
    "missionGroup":"",
    "longitude":-0.367171,
    "latitude":53.769661,
    "easting":507718,
    "northing":431603
  },
  {
    "institutionId":"0090",
    "guardianHeiTitle":"South Wales",
    "ukPrn":"10007793",
    "providerName":"UNIVERSITY OF SOUTH WALES",
    "postcode":"CF37 1DL",
    "missionGroup":"University_Alliance",
    "longitude":-3.325787,
    "latitude":51.588739,
    "easting":308249,
    "northing":188598
  },
  {
    "institutionId":"0033",
    "guardianHeiTitle":"Royal Academy of Music",
    "ukPrn":"10007835",
    "providerName":"ROYAL ACADEMY OF MUSIC",
    "postcode":"NW1 5HT",
    "missionGroup":"",
    "longitude":-0.151727,
    "latitude":51.523617,
    "easting":528321,
    "northing":182141
  },
  {
    "institutionId":"0202",
    "guardianHeiTitle":"London Met",
    "ukPrn":"10004048",
    "providerName":"LONDON METROPOLITAN UNIVERSITY",
    "postcode":"N7 8DB",
    "missionGroup":"Million_Plus",
    "longitude":-0.11021,
    "latitude":51.551822,
    "easting":531120,
    "northing":185351
  },
  {
    "institutionId":"0012",
    "guardianHeiTitle":"Canterbury Christ Church",
    "ukPrn":"10001143",
    "providerName":"CANTERBURY CHRIST CHURCH UNIVERSITY",
    "postcode":"CT1 1UT",
    "missionGroup":"Million_Plus",
    "longitude":1.085663,
    "latitude":51.275761,
    "easting":615312,
    "northing":157479
  },
  {
    "institutionId":"0039",
    "guardianHeiTitle":"St Mary's, Twickenham",
    "ukPrn":"10007843",
    "providerName":"ST MARY'S UNIVERSITY, TWICKENHAM",
    "postcode":"TW1 4SX",
    "missionGroup":"",
    "longitude":-0.335292,
    "latitude":51.437438,
    "easting":515805,
    "northing":172252
  },
  {
    "institutionId":"0199",
    "guardianHeiTitle":"Conservatoire for Dance and Drama",
    "ukPrn":"10001653",
    "providerName":"THE CONSERVATOIRE FOR DANCE AND DRAMA",
    "postcode":"WC1H 9JJ",
    "missionGroup":"",
    "longitude":-0.12909,
    "latitude":51.526207,
    "easting":529884,
    "northing":182469
  },
  {
    "institutionId":"0127",
    "guardianHeiTitle":"Birkbeck",
    "ukPrn":"10007760",
    "providerName":"BIRKBECK COLLEGE",
    "postcode":"WC1E 7HX",
    "missionGroup":"",
    "longitude":-0.127819,
    "latitude":51.520998,
    "easting":529987,
    "northing":181892
  },
  {
    "institutionId":"0126",
    "guardianHeiTitle":"Liverpool",
    "ukPrn":"10006842",
    "providerName":"UNIVERSITY OF LIVERPOOL",
    "postcode":"L69 3BX",
    "missionGroup":"N8_Research_Partnership, Russell_Group",
    "longitude":-2.975554,
    "latitude":53.406416,
    "easting":335243,
    "northing":390397
  },
  {
    "institutionId":"0188",
    "guardianHeiTitle":"Institute of Cancer Research",
    "ukPrn":"10003324",
    "providerName":"INSTITUTE OF CANCER RESEARCH: ROYAL CANCER HOSPITAL (THE)",
    "postcode":"SW7 3RP",
    "missionGroup":"",
    "longitude":-0.181668,
    "latitude":51.490713,
    "easting":526335,
    "northing":178430
  },
  {
    "institutionId":"0059",
    "guardianHeiTitle":"Greenwich",
    "ukPrn":"10007146",
    "providerName":"UNIVERSITY OF GREENWICH",
    "postcode":"SE10 9LS",
    "missionGroup":"Million_Plus",
    "longitude":-0.003891,
    "latitude":51.484493,
    "easting":538695,
    "northing":178060
  },
  {
    "institutionId":"0013",
    "guardianHeiTitle":"York St John",
    "ukPrn":"10007713",
    "providerName":"YORK ST JOHN UNIVERSITY",
    "postcode":"YO31 7EX",
    "missionGroup":"",
    "longitude":-1.08029,
    "latitude":53.965263,
    "easting":460436,
    "northing":452521
  },
  {
    "institutionId":"0176",
    "guardianHeiTitle":"Trinity Saint David",
    "ukPrn":"10007858",
    "providerName":"UNIVERSITY OF WALES: TRINITY SAINT DAVID",
    "postcode":"SA31 3EP",
    "missionGroup":"",
    "longitude":-4.328723,
    "latitude":51.858379,
    "easting":239732,
    "northing":220318
  },
  {
    "institutionId":"0208",
    "guardianHeiTitle":"Guildhall School of Music and Drama",
    "ukPrn":"10007825",
    "providerName":"GUILDHALL SCHOOL OF MUSIC AND DRAMA",
    "postcode":"EC2Y 8DT",
    "missionGroup":"",
    "longitude":-0.092406,
    "latitude":51.519502,
    "easting":532448,
    "northing":181789
  },
  {
    "institutionId":"0091",
    "guardianHeiTitle":"Swansea Met",
    "ukPrn":"10007846",
    "providerName":"SWANSEA METROPOLITAN UNIVERSITY",
    "postcode":"SA1 6ED",
    "missionGroup":"",
    "longitude":-3.949446,
    "latitude":51.624658,
    "easting":265153,
    "northing":193560
  },
  {
    "institutionId":"0111",
    "guardianHeiTitle":"Bradford",
    "ukPrn":"10007785",
    "providerName":"UNIVERSITY OF BRADFORD",
    "postcode":"BD7 1DP",
    "missionGroup":"University_Alliance",
    "longitude":-1.762133,
    "latitude":53.791716,
    "easting":415768,
    "northing":432847
  },
  {
    "institutionId":"0076",
    "guardianHeiTitle":"London South Bank",
    "ukPrn":"10004078",
    "providerName":"LONDON SOUTH BANK UNIVERSITY",
    "postcode":"SE1 0AA",
    "missionGroup":"",
    "longitude":-0.10163,
    "latitude":51.49841,
    "easting":531869,
    "northing":179427
  },
  {
    "institutionId":"0210",
    "guardianHeiTitle":"University Campus Suffolk",
    "ukPrn":"10014001",
    "providerName":"UNIVERSITY CAMPUS SUFFOLK LTD",
    "postcode":"IP4 1QJ",
    "missionGroup":"",
    "longitude":1.162554,
    "latitude":52.052585,
    "easting":616931,
    "northing":244074
  },
  {
    "institutionId":"0105",
    "guardianHeiTitle":"West of Scotland",
    "ukPrn":"10007800",
    "providerName":"UNIVERSITY OF THE WEST OF SCOTLAND",
    "postcode":"PA1 2BE",
    "missionGroup":"Million_Plus",
    "longitude":-4.428479,
    "latitude":55.843669,
    "easting":248040,
    "northing":663830
  },
  {
    "institutionId":"0065",
    "guardianHeiTitle":"Liverpool John Moores",
    "ukPrn":"10003957",
    "providerName":"LIVERPOOL JOHN MOORES UNIVERSITY",
    "postcode":"L3 5UX",
    "missionGroup":"University_Alliance",
    "longitude":-2.973176,
    "latitude":53.403702,
    "easting":335397,
    "northing":390093
  },
  {
    "institutionId":"0197",
    "guardianHeiTitle":"Arts University Bournemouth",
    "ukPrn":"10000385",
    "providerName":"THE ARTS UNIVERSITY COLLEGE AT BOURNEMOUTH",
    "postcode":"BH12 5HH",
    "missionGroup":"",
    "longitude":-1.8977,
    "latitude":50.741781,
    "easting":407314,
    "northing":93581
  },
  {
    "institutionId":"0109",
    "guardianHeiTitle":"Bath",
    "ukPrn":"10007850",
    "providerName":"UNIVERSITY OF BATH (THE)",
    "postcode":"BA2 7AY",
    "missionGroup":"",
    "longitude":-2.330671,
    "latitude":51.380438,
    "easting":377083,
    "northing":164651
  },
  {
    "institutionId":"0080",
    "guardianHeiTitle":"West London",
    "ukPrn":"10006566",
    "providerName":"THE UNIVERSITY OF WEST LONDON",
    "postcode":"W5 5RF",
    "missionGroup":"Million_Plus",
    "longitude":-0.30339,
    "latitude":51.50661,
    "easting":517844,
    "northing":179995
  },
  {
    "institutionId":"0072",
    "guardianHeiTitle":"Oxford Brookes",
    "ukPrn":"10004930",
    "providerName":"OXFORD BROOKES UNIVERSITY",
    "postcode":"OX3 0BP",
    "missionGroup":"University_Alliance",
    "longitude":-1.223181,
    "latitude":51.754386,
    "easting":453717,
    "northing":206473
  },
  {
    "institutionId":"0146",
    "guardianHeiTitle":"SOAS",
    "ukPrn":"10007780",
    "providerName":"SCHOOL OF ORIENTAL AND AFRICAN STUDIES",
    "postcode":"WC1H 0XG",
    "missionGroup":"",
    "longitude":-0.129233,
    "latitude":51.522352,
    "easting":529885,
    "northing":182040
  },
  {
    "institutionId":"0132",
    "guardianHeiTitle":"Imperial College",
    "ukPrn":"10003270",
    "providerName":"IMPERIAL COLLEGE OF SCIENCE, TECHNOLOGY AND MEDICINE",
    "postcode":"SW7 2AZ",
    "missionGroup":"Russell_Group",
    "longitude":-0.178194,
    "latitude":51.500506,
    "easting":526549,
    "northing":179525
  },
  {
    "institutionId":"0035",
    "guardianHeiTitle":"Royal Northern College of Music",
    "ukPrn":"10007837",
    "providerName":"ROYAL NORTHERN COLLEGE OF MUSIC",
    "postcode":"M13 9RD",
    "missionGroup":"",
    "longitude":-2.236946,
    "latitude":53.468583,
    "easting":384368,
    "northing":396896
  },
  {
    "institutionId":"0053",
    "guardianHeiTitle":"Central Lancashire",
    "ukPrn":"10007141",
    "providerName":"UNIVERSITY OF CENTRAL LANCASHIRE",
    "postcode":"PR1 2HE",
    "missionGroup":"Million_Plus",
    "longitude":-2.707381,
    "latitude":53.761354,
    "easting":353463,
    "northing":429675
  },
  {
    "institutionId":"0046",
    "guardianHeiTitle":"Worcester",
    "ukPrn":"10007139",
    "providerName":"UNIVERSITY OF WORCESTER",
    "postcode":"WR2 6AJ",
    "missionGroup":"",
    "longitude":-2.243038,
    "latitude":52.197568,
    "easting":383485,
    "northing":255508
  },
  {
    "institutionId":"9987",
    "guardianHeiTitle":"Peninsula Medical School",
    "ukPrn":"99999987",
    "providerName":"Peninsula Medical School",
    "postcode":"PL4 8AA",
    "missionGroup":"",
    "longitude":-4.138393,
    "latitude":50.375186,
    "easting":248044,
    "northing":54998
  },
  {
    "institutionId":"9998",
    "guardianHeiTitle":"Hull York Medical School",
    "ukPrn":"99999998",
    "providerName":"HULL YORK MEDICAL SCHOOL",
    "postcode":"HU6 7RX",
    "missionGroup":"",
    "longitude":-0.367171,
    "latitude":53.769661,
    "easting":507718,
    "northing":431603
  },
  {
    "institutionId":"9999",
    "guardianHeiTitle":"Brighton Sussex Medical School",
    "ukPrn":"99999999",
    "providerName":"Brighton & Sussex Medical School",
    "postcode":"BN1 9RH",
    "missionGroup":"",
    "longitude":-0.087049,
    "latitude":50.864464,
    "easting":534715,
    "northing":108961
  },
  {
    "institutionId":"9988",
    "guardianHeiTitle":"Manchester School of Architecture",
    "ukPrn":"99999988",
    "providerName":"Manchester Architecture",
    "postcode":"M13 9PL",
    "missionGroup":"",
    "longitude":-2.233222,
    "latitude":53.467943,
    "easting":384615,
    "northing":396824
  },
  {
    "institutionId":"9989",
    "guardianHeiTitle":"Kingston - St George's University",
    "ukPrn":"99999989",
    "providerName":"Kingston - St George's University",
    "postcode":"SW17 0RE",
    "missionGroup":"",
    "longitude":-0.173355,
    "latitude":51.427985,
    "easting":527086,
    "northing":171469
  },
  {
    "institutionId":"9997",
    "guardianHeiTitle":"Medway School of Pharmacy",
    "ukPrn":"99999997",
    "providerName":"MEDWAY SCHOOL OF PHARMACY",
    "postcode":"SE10 9LS",
    "missionGroup":"",
    "longitude":-0.003891,
    "latitude":51.484493,
    "easting":538695,
    "northing":178060
  }
]